#   SL-12 DEB           # Near Earth, perigee = 212.24 < 220
#                       # simplified drag eq
# 0 1440 120
1 29238U 06022G   06177.28732010  .00766286  10823-4  13334-2 0   101
2 29238  51.5595 213.7903 0202579  95.2503 267.9010 15.73823839  1061
